{
  "norad_id": 45442,
  "name": "ONEWEB-0098",
  "history": [
    {
      "epoch": "2026-03-28T20:30:31.766112Z",
      "apogee_km": 1219.1616055871673,
      "perigee_km": 1216.2126028369494,
      "latitude_deg": -4.2658962060478913e-05,
      "longitude_deg": -96.86886374196756,
      "height_km": 1220.3000944627486,
      "semi_major_axis_km": 7595.824104212058,
      "eccentricity": 0.00019412,
      "inclination_deg": 87.89,
      "raan_deg": 37.0325,
      "arg_perigee_deg": 79.3312,
      "mean_anomaly_deg": 280.8034,
      "mean_motion_rev_day": 13.11415804
    },
    {
      "epoch": "2026-03-29T02:00:07.908768Z",
      "apogee_km": 1219.1593706342355,
      "perigee_km": 1216.2137102652505,
      "latitude_deg": -3.066636010512471e-05,
      "longitude_deg": -179.54056252755598,
      "height_km": 1220.3043524539612,
      "semi_major_axis_km": 7595.823540449743,
      "eccentricity": 0.0001939,
      "inclination_deg": 87.8901,
      "raan_deg": 36.987,
      "arg_perigee_deg": 79.5097,
      "mean_anomaly_deg": 280.6249,
      "mean_motion_rev_day": 13.1141595
    },
    {
      "epoch": "2026-03-30T03:38:16.550880Z",
      "apogee_km": 1219.1508853455298,
      "perigee_km": 1216.2147971440945,
      "latitude_deg": 5.4096522842744636e-05,
      "longitude_deg": 154.65821023839428,
      "height_km": 1220.296802604505,
      "semi_major_axis_km": 7595.819841244812,
      "eccentricity": 0.00019327,
      "inclination_deg": 87.8904,
      "raan_deg": 36.7746,
      "arg_perigee_deg": 79.3221,
      "mean_anomaly_deg": 280.8125,
      "mean_motion_rev_day": 13.11416908
    },
    {
      "epoch": "2026-03-30T14:37:28.836192Z",
      "apogee_km": 1219.1515239172222,
      "perigee_km": 1216.213764711587,
      "latitude_deg": -5.450574150119415e-05,
      "longitude_deg": -10.685191634722601,
      "height_km": 1220.2949547682308,
      "semi_major_axis_km": 7595.819644314404,
      "eccentricity": 0.00019338,
      "inclination_deg": 87.8904,
      "raan_deg": 36.6836,
      "arg_perigee_deg": 79.2621,
      "mean_anomaly_deg": 280.8724,
      "mean_motion_rev_day": 13.11416959
    },
    {
      "epoch": "2026-03-30T21:56:56.960160Z",
      "apogee_km": 1219.1446787548139,
      "perigee_km": 1216.2163391887552,
      "latitude_deg": 2.954886782581803e-05,
      "longitude_deg": -120.91387706039441,
      "height_km": 1220.288931408185,
      "semi_major_axis_km": 7595.817508971784,
      "eccentricity": 0.00019276,
      "inclination_deg": 87.8905,
      "raan_deg": 36.6229,
      "arg_perigee_deg": 79.0722,
      "mean_anomaly_deg": 281.0623,
      "mean_motion_rev_day": 13.11417512
    },
    {
      "epoch": "2026-03-31T19:55:21.365760Z",
      "apogee_km": 1219.1470065254089,
      "perigee_km": 1216.2089452927275,
      "latitude_deg": -3.11121827175255e-05,
      "longitude_deg": -91.5999853804878,
      "height_km": 1220.281527053819,
      "semi_major_axis_km": 7595.814975909068,
      "eccentricity": 0.0001934,
      "inclination_deg": 87.8907,
      "raan_deg": 36.4409,
      "arg_perigee_deg": 78.9152,
      "mean_anomaly_deg": 281.2193,
      "mean_motion_rev_day": 13.11418168
    },
    {
      "epoch": "2026-04-01T14:14:01.595328Z",
      "apogee_km": 1219.1442296614814,
      "perigee_km": 1216.2061695026841,
      "latitude_deg": -4.685817574835331e-05,
      "longitude_deg": -7.171221418174398,
      "height_km": 1220.2840408675572,
      "semi_major_axis_km": 7595.812199582083,
      "eccentricity": 0.0001934,
      "inclination_deg": 87.891,
      "raan_deg": 36.2893,
      "arg_perigee_deg": 79.1252,
      "mean_anomaly_deg": 281.0093,
      "mean_motion_rev_day": 13.11418887
    },
    {
      "epoch": "2026-04-02T14:02:17.869056Z",
      "apogee_km": 1219.1405734840546,
      "perigee_km": 1216.204489267796,
      "latitude_deg": -1.9700202898113557e-05,
      "longitude_deg": -5.4137436308681215,
      "height_km": 1220.2773279622452,
      "semi_major_axis_km": 7595.809531375925,
      "eccentricity": 0.00019327,
      "inclination_deg": 87.8913,
      "raan_deg": 36.0922,
      "arg_perigee_deg": 78.9569,
      "mean_anomaly_deg": 281.1776,
      "mean_motion_rev_day": 13.11419578
    },
    {
      "epoch": "2026-04-02T21:21:45.936000Z",
      "apogee_km": 1219.129051055972,
      "perigee_km": 1216.2146911083146,
      "latitude_deg": -3.57801314246078e-05,
      "longitude_deg": -115.64209461527817,
      "height_km": 1220.271066971726,
      "semi_major_axis_km": 7595.808871082143,
      "eccentricity": 0.00019184,
      "inclination_deg": 87.8913,
      "raan_deg": 36.0316,
      "arg_perigee_deg": 78.6478,
      "mean_anomaly_deg": 281.4865,
      "mean_motion_rev_day": 13.11419749
    },
    {
      "epoch": "2026-04-03T19:20:10.184352Z",
      "apogee_km": 1219.1332003341377,
      "perigee_km": 1216.214889730636,
      "latitude_deg": -4.1834868058011986e-05,
      "longitude_deg": -86.32754518810641,
      "height_km": 1220.2653670603038,
      "semi_major_axis_km": 7595.811045032387,
      "eccentricity": 0.0001921,
      "inclination_deg": 87.8915,
      "raan_deg": 35.8496,
      "arg_perigee_deg": 78.3479,
      "mean_anomaly_deg": 281.7864,
      "mean_motion_rev_day": 13.11419186
    },
    {
      "epoch": "2026-04-04T06:19:22.188000Z",
      "apogee_km": 1219.1149344999194,
      "perigee_km": 1216.2260969855306,
      "latitude_deg": -2.1639180928088782e-05,
      "longitude_deg": 108.33023367798368,
      "height_km": 1220.2640519046997,
      "semi_major_axis_km": 7595.807515742725,
      "eccentricity": 0.00019016,
      "inclination_deg": 87.8915,
      "raan_deg": 35.7586,
      "arg_perigee_deg": 78.3157,
      "mean_anomaly_deg": 281.8184,
      "mean_motion_rev_day": 13.114201
    },
    {
      "epoch": "2026-04-05T13:27:06.503616Z",
      "apogee_km": 1219.1169208829906,
      "perigee_km": 1216.229145824509,
      "latitude_deg": -2.5490484224101954e-06,
      "longitude_deg": -0.1405373672477361,
      "height_km": 1220.2631653916278,
      "semi_major_axis_km": 7595.8100333537495,
      "eccentricity": 0.00019009,
      "inclination_deg": 87.8916,
      "raan_deg": 35.5009,
      "arg_perigee_deg": 78.1734,
      "mean_anomaly_deg": 281.9607,
      "mean_motion_rev_day": 13.11419448
    },
    {
      "epoch": "2026-04-05T20:46:34.585248Z",
      "apogee_km": 1219.1186060847913,
      "perigee_km": 1216.2291596249534,
      "latitude_deg": 8.759909148512519e-05,
      "longitude_deg": -110.36894658793273,
      "height_km": 1220.2631990555783,
      "semi_major_axis_km": 7595.810882854872,
      "eccentricity": 0.0001902,
      "inclination_deg": 87.8917,
      "raan_deg": 35.4403,
      "arg_perigee_deg": 78.1479,
      "mean_anomaly_deg": 281.9863,
      "mean_motion_rev_day": 13.11419228
    },
    {
      "epoch": "2026-04-06T05:55:54.644736Z",
      "apogee_km": 1219.1198768290387,
      "perigee_km": 1216.225417604869,
      "latitude_deg": 4.8270620380534843e-05,
      "longitude_deg": 111.84566393308477,
      "height_km": 1220.2621149024276,
      "semi_major_axis_km": 7595.809647216954,
      "eccentricity": 0.00019053,
      "inclination_deg": 87.8918,
      "raan_deg": 35.3645,
      "arg_perigee_deg": 78.1748,
      "mean_anomaly_deg": 281.9594,
      "mean_motion_rev_day": 13.11419548
    },
    {
      "epoch": "2026-04-07T13:03:39.167712Z",
      "apogee_km": 1219.1429318201563,
      "perigee_km": 1216.213074057223,
      "latitude_deg": 2.1780622523088746e-06,
      "longitude_deg": 3.374022375085327,
      "height_km": 1220.259033964198,
      "semi_major_axis_km": 7595.815002938689,
      "eccentricity": 0.00019286,
      "inclination_deg": 87.8919,
      "raan_deg": 35.1068,
      "arg_perigee_deg": 77.9839,
      "mean_anomaly_deg": 282.1505,
      "mean_motion_rev_day": 13.11418161
    },
    {
      "epoch": "2026-04-07T20:23:07.272672Z",
      "apogee_km": 1219.1368796730476,
      "perigee_km": 1216.2170487851972,
      "latitude_deg": -1.6729691414269746e-05,
      "longitude_deg": -106.85458865432915,
      "height_km": 1220.2568145728267,
      "semi_major_axis_km": 7595.813964229122,
      "eccentricity": 0.0001922,
      "inclination_deg": 87.8919,
      "raan_deg": 35.0461,
      "arg_perigee_deg": 77.894,
      "mean_anomaly_deg": 282.2403,
      "mean_motion_rev_day": 13.1141843
    },
    {
      "epoch": "2026-04-08T05:32:27.445344Z",
      "apogee_km": 1219.134336933852,
      "perigee_km": 1216.2230127020075,
      "latitude_deg": -6.551428312295682e-05,
      "longitude_deg": 115.3597483287197,
      "height_km": 1220.2629165236153,
      "semi_major_axis_km": 7595.81567481793,
      "eccentricity": 0.00019164,
      "inclination_deg": 87.8919,
      "raan_deg": 34.9705,
      "arg_perigee_deg": 78.0342,
      "mean_anomaly_deg": 282.1,
      "mean_motion_rev_day": 13.11417987
    },
    {
      "epoch": "2026-04-09T19:59:40.359264Z",
      "apogee_km": 1219.1275417512597,
      "perigee_km": 1216.236573018019,
      "latitude_deg": 2.493386384938757e-05,
      "longitude_deg": -103.34149386772657,
      "height_km": 1220.2563318681466,
      "semi_major_axis_km": 7595.819057384639,
      "eccentricity": 0.0001903,
      "inclination_deg": 87.8919,
      "raan_deg": 34.6523,
      "arg_perigee_deg": 77.5439,
      "mean_anomaly_deg": 282.5902,
      "mean_motion_rev_day": 13.11417111
    },
    {
      "epoch": "2026-04-10T12:28:28.800192Z",
      "apogee_km": 1219.1194411491933,
      "perigee_km": 1216.2497397523211,
      "latitude_deg": 1.3532438483263516e-05,
      "longitude_deg": 8.643452208568723,
      "height_km": 1220.2517943191306,
      "semi_major_axis_km": 7595.821590450757,
      "eccentricity": 0.0001889,
      "inclination_deg": 87.8919,
      "raan_deg": 34.5159,
      "arg_perigee_deg": 77.1595,
      "mean_anomaly_deg": 282.9744,
      "mean_motion_rev_day": 13.11416455
    }
  ]
}